{
"type": "FeatureCollection",
"name": "waterways_utm443",
"crs": { "type": "name", "properties": { "name": "urn:ogc:def:crs:EPSG::32644" } },
"features": [
{"type":"Feature","properties":{"full_id":"n311020053","osm_id":"311020053","osm_type":"node","waterway":null,"seamark:type":null,"access":null,"tunnel":null,"seasonal":null,"historic":null,"date":null,"start_date":null,"name:en":null,"name":null,"addr:state":null,"addr:city":null,"backrest":null,"amenity":null,"ford":"yes"},"geometry":{"type":"Point","coordinates":[338527.490811747382395,1916015.637487703002989]}},
{"type":"Feature","properties":{"full_id":"n2786023291","osm_id":"2786023291","osm_type":"node","waterway":null,"seamark:type":null,"access":null,"tunnel":null,"seasonal":null,"historic":null,"date":null,"start_date":null,"name:en":null,"name":null,"addr:state":null,"addr:city":null,"backrest":null,"amenity":null,"ford":"yes"},"geometry":{"type":"Point","coordinates":[231129.75336808571592,1937210.285075102001429]}},
{"type":"Feature","properties":{"full_id":"n3598378829","osm_id":"3598378829","osm_type":"node","waterway":null,"seamark:type":null,"access":null,"tunnel":null,"seasonal":null,"historic":null,"date":null,"start_date":null,"name:en":null,"name":null,"addr:state":null,"addr:city":null,"backrest":null,"amenity":null,"ford":"yes"},"geometry":{"type":"Point","coordinates":[245203.330047916300828,1915858.713970713317394]}},
{"type":"Feature","properties":{"full_id":"n4314601696","osm_id":"4314601696","osm_type":"node","waterway":null,"seamark:type":null,"access":null,"tunnel":null,"seasonal":null,"historic":null,"date":null,"start_date":null,"name:en":null,"name":null,"addr:state":null,"addr:city":null,"backrest":null,"amenity":null,"ford":"yes"},"geometry":{"type":"Point","coordinates":[213306.026322675112169,1942854.887257161550224]}},
{"type":"Feature","properties":{"full_id":"n4640244807","osm_id":"4640244807","osm_type":"node","waterway":null,"seamark:type":null,"access":null,"tunnel":null,"seasonal":null,"historic":null,"date":null,"start_date":null,"name:en":null,"name":null,"addr:state":null,"addr:city":null,"backrest":"yes","amenity":"bench","ford":null},"geometry":{"type":"Point","coordinates":[232826.136970633233432,1926030.555828212760389]}},
{"type":"Feature","properties":{"full_id":"n7003041714","osm_id":"7003041714","osm_type":"node","waterway":null,"seamark:type":null,"access":null,"tunnel":null,"seasonal":null,"historic":null,"date":null,"start_date":null,"name:en":null,"name":null,"addr:state":null,"addr:city":null,"backrest":null,"amenity":null,"ford":null},"geometry":{"type":"Point","coordinates":[234656.101142168277875,1931305.036535243503749]}},
{"type":"Feature","properties":{"full_id":"n7246595608","osm_id":"7246595608","osm_type":"node","waterway":"dam","seamark:type":null,"access":null,"tunnel":null,"seasonal":null,"historic":null,"date":null,"start_date":"1927","name:en":"Himayath Sagar Dam","name":"ہمایت ساگر","addr:state":"Telangana","addr:city":"Hyderabad","backrest":null,"amenity":null,"ford":null},"geometry":{"type":"Point","coordinates":[219862.704810098977759,1918116.804225521627814]}},
{"type":"Feature","properties":{"full_id":"n7419083335","osm_id":"7419083335","osm_type":"node","waterway":null,"seamark:type":null,"access":null,"tunnel":null,"seasonal":null,"historic":null,"date":null,"start_date":null,"name:en":null,"name":null,"addr:state":null,"addr:city":null,"backrest":null,"amenity":null,"ford":"yes"},"geometry":{"type":"Point","coordinates":[245187.972599097352941,1949290.246031348593533]}},
{"type":"Feature","properties":{"full_id":"n7655769034","osm_id":"7655769034","osm_type":"node","waterway":null,"seamark:type":null,"access":null,"tunnel":null,"seasonal":null,"historic":null,"date":null,"start_date":null,"name:en":null,"name":null,"addr:state":null,"addr:city":null,"backrest":null,"amenity":null,"ford":"yes"},"geometry":{"type":"Point","coordinates":[205326.665068887115922,1925780.268354054540396]}},
{"type":"Feature","properties":{"full_id":"n7711009312","osm_id":"7711009312","osm_type":"node","waterway":null,"seamark:type":null,"access":null,"tunnel":null,"seasonal":null,"historic":null,"date":null,"start_date":null,"name:en":null,"name":null,"addr:state":null,"addr:city":null,"backrest":null,"amenity":null,"ford":"yes"},"geometry":{"type":"Point","coordinates":[242437.680619912513066,1926110.801279010018334]}},
{"type":"Feature","properties":{"full_id":"n8405105286","osm_id":"8405105286","osm_type":"node","waterway":null,"seamark:type":null,"access":null,"tunnel":null,"seasonal":null,"historic":null,"date":null,"start_date":null,"name:en":null,"name":null,"addr:state":null,"addr:city":null,"backrest":null,"amenity":null,"ford":"yes"},"geometry":{"type":"Point","coordinates":[312933.940684421104379,1920152.367932223016396]}},
{"type":"Feature","properties":{"full_id":"n8658857301","osm_id":"8658857301","osm_type":"node","waterway":null,"seamark:type":null,"access":null,"tunnel":null,"seasonal":null,"historic":null,"date":null,"start_date":null,"name:en":null,"name":null,"addr:state":null,"addr:city":null,"backrest":null,"amenity":null,"ford":"yes"},"geometry":{"type":"Point","coordinates":[177399.208156360953581,1916381.154409921029583]}},
{"type":"Feature","properties":{"full_id":"n8987811327","osm_id":"8987811327","osm_type":"node","waterway":"dam","seamark:type":null,"access":null,"tunnel":null,"seasonal":null,"historic":"yes","date":"yes","start_date":"1921-05-08","name:en":"Osman Sagar Dam","name":"عثمان ساگر","addr:state":"Telangana","addr:city":"Hyderabad","backrest":null,"amenity":null,"ford":null},"geometry":{"type":"Point","coordinates":[214892.955004292947706,1923142.441064753104001]}},
{"type":"Feature","properties":{"full_id":"n9422743311","osm_id":"9422743311","osm_type":"node","waterway":null,"seamark:type":null,"access":null,"tunnel":null,"seasonal":null,"historic":null,"date":null,"start_date":null,"name:en":null,"name":null,"addr:state":null,"addr:city":null,"backrest":null,"amenity":null,"ford":"yes"},"geometry":{"type":"Point","coordinates":[216475.546606660995167,1925093.087271511321887]}},
{"type":"Feature","properties":{"full_id":"n9845295869","osm_id":"9845295869","osm_type":"node","waterway":"fish_pass","seamark:type":null,"access":null,"tunnel":"yes","seasonal":"yes","historic":null,"date":null,"start_date":null,"name:en":null,"name":null,"addr:state":null,"addr:city":null,"backrest":null,"amenity":null,"ford":null},"geometry":{"type":"Point","coordinates":[213743.654063659370877,1961050.966602529399097]}},
{"type":"Feature","properties":{"full_id":"n11059228358","osm_id":"11059228358","osm_type":"node","waterway":null,"seamark:type":null,"access":null,"tunnel":null,"seasonal":null,"historic":null,"date":null,"start_date":null,"name:en":null,"name":null,"addr:state":null,"addr:city":null,"backrest":null,"amenity":null,"ford":"yes"},"geometry":{"type":"Point","coordinates":[244012.158951812743908,1914898.441156554967165]}},
{"type":"Feature","properties":{"full_id":"n11059228359","osm_id":"11059228359","osm_type":"node","waterway":null,"seamark:type":null,"access":null,"tunnel":null,"seasonal":null,"historic":null,"date":null,"start_date":null,"name:en":null,"name":null,"addr:state":null,"addr:city":null,"backrest":null,"amenity":null,"ford":"yes"},"geometry":{"type":"Point","coordinates":[243809.062051047803834,1914227.59801355865784]}},
{"type":"Feature","properties":{"full_id":"n11061162849","osm_id":"11061162849","osm_type":"node","waterway":null,"seamark:type":null,"access":null,"tunnel":null,"seasonal":null,"historic":null,"date":null,"start_date":null,"name:en":null,"name":null,"addr:state":null,"addr:city":null,"backrest":null,"amenity":null,"ford":"yes"},"geometry":{"type":"Point","coordinates":[245074.975447309785523,1916130.750636786222458]}},
{"type":"Feature","properties":{"full_id":"n11061162851","osm_id":"11061162851","osm_type":"node","waterway":null,"seamark:type":null,"access":null,"tunnel":null,"seasonal":null,"historic":null,"date":null,"start_date":null,"name:en":null,"name":null,"addr:state":null,"addr:city":null,"backrest":null,"amenity":null,"ford":"yes"},"geometry":{"type":"Point","coordinates":[245031.902518852235517,1915598.540628973161802]}},
{"type":"Feature","properties":{"full_id":"n11061162852","osm_id":"11061162852","osm_type":"node","waterway":null,"seamark:type":null,"access":null,"tunnel":null,"seasonal":null,"historic":null,"date":null,"start_date":null,"name:en":null,"name":null,"addr:state":null,"addr:city":null,"backrest":null,"amenity":null,"ford":"yes"},"geometry":{"type":"Point","coordinates":[245061.373030075163115,1915589.868843762669712]}},
{"type":"Feature","properties":{"full_id":"n11061162853","osm_id":"11061162853","osm_type":"node","waterway":null,"seamark:type":null,"access":null,"tunnel":null,"seasonal":null,"historic":null,"date":null,"start_date":null,"name:en":null,"name":null,"addr:state":null,"addr:city":null,"backrest":null,"amenity":null,"ford":"yes"},"geometry":{"type":"Point","coordinates":[245081.981965370010585,1915584.463231517001987]}},
{"type":"Feature","properties":{"full_id":"n11061162854","osm_id":"11061162854","osm_type":"node","waterway":null,"seamark:type":null,"access":null,"tunnel":null,"seasonal":null,"historic":null,"date":null,"start_date":null,"name:en":null,"name":null,"addr:state":null,"addr:city":null,"backrest":null,"amenity":null,"ford":"yes"},"geometry":{"type":"Point","coordinates":[245137.852473341015866,1915588.716450142441317]}},
{"type":"Feature","properties":{"full_id":"n11061162855","osm_id":"11061162855","osm_type":"node","waterway":null,"seamark:type":null,"access":null,"tunnel":null,"seasonal":null,"historic":null,"date":null,"start_date":null,"name:en":null,"name":null,"addr:state":null,"addr:city":null,"backrest":null,"amenity":null,"ford":"yes"},"geometry":{"type":"Point","coordinates":[245198.618016998865642,1915617.08028891379945]}},
{"type":"Feature","properties":{"full_id":"n11155524619","osm_id":"11155524619","osm_type":"node","waterway":null,"seamark:type":null,"access":null,"tunnel":null,"seasonal":null,"historic":null,"date":null,"start_date":null,"name:en":null,"name":null,"addr:state":null,"addr:city":null,"backrest":null,"amenity":null,"ford":"yes"},"geometry":{"type":"Point","coordinates":[239610.20982072755578,1923244.545973350293934]}},
{"type":"Feature","properties":{"full_id":"n11173763438","osm_id":"11173763438","osm_type":"node","waterway":null,"seamark:type":null,"access":null,"tunnel":null,"seasonal":null,"historic":null,"date":null,"start_date":null,"name:en":null,"name":null,"addr:state":null,"addr:city":null,"backrest":null,"amenity":null,"ford":"yes"},"geometry":{"type":"Point","coordinates":[242568.38773036110797,1926730.646184305427596]}},
{"type":"Feature","properties":{"full_id":"n11460290617","osm_id":"11460290617","osm_type":"node","waterway":null,"seamark:type":null,"access":null,"tunnel":null,"seasonal":null,"historic":null,"date":null,"start_date":null,"name:en":null,"name":null,"addr:state":null,"addr:city":null,"backrest":null,"amenity":null,"ford":"yes"},"geometry":{"type":"Point","coordinates":[219387.417920019885059,1925774.822090252069756]}},
{"type":"Feature","properties":{"full_id":"n11460290618","osm_id":"11460290618","osm_type":"node","waterway":null,"seamark:type":null,"access":null,"tunnel":null,"seasonal":null,"historic":null,"date":null,"start_date":null,"name:en":null,"name":null,"addr:state":null,"addr:city":null,"backrest":null,"amenity":null,"ford":"yes"},"geometry":{"type":"Point","coordinates":[219394.570370774483308,1925763.78155297995545]}},
{"type":"Feature","properties":{"full_id":"n12339294193","osm_id":"12339294193","osm_type":"node","waterway":null,"seamark:type":null,"access":null,"tunnel":null,"seasonal":null,"historic":null,"date":null,"start_date":null,"name:en":null,"name":null,"addr:state":null,"addr:city":null,"backrest":null,"amenity":null,"ford":"yes"},"geometry":{"type":"Point","coordinates":[243755.703753252775641,1914644.410479509970173]}},
{"type":"Feature","properties":{"full_id":"n12393524851","osm_id":"12393524851","osm_type":"node","waterway":null,"seamark:type":null,"access":null,"tunnel":null,"seasonal":null,"historic":null,"date":null,"start_date":null,"name:en":null,"name":null,"addr:state":null,"addr:city":null,"backrest":null,"amenity":null,"ford":"yes"},"geometry":{"type":"Point","coordinates":[248740.594982774433447,1904006.247994328383356]}},
{"type":"Feature","properties":{"full_id":"n12393524853","osm_id":"12393524853","osm_type":"node","waterway":null,"seamark:type":null,"access":null,"tunnel":null,"seasonal":null,"historic":null,"date":null,"start_date":null,"name:en":null,"name":null,"addr:state":null,"addr:city":null,"backrest":null,"amenity":null,"ford":"yes"},"geometry":{"type":"Point","coordinates":[248730.059320044470951,1904007.085208167089149]}},
{"type":"Feature","properties":{"full_id":"n13363576700","osm_id":"13363576700","osm_type":"node","waterway":"lock_gate","seamark:type":"gate","access":"private","tunnel":null,"seasonal":null,"historic":null,"date":null,"start_date":null,"name:en":null,"name":null,"addr:state":null,"addr:city":null,"backrest":null,"amenity":null,"ford":null},"geometry":{"type":"Point","coordinates":[235369.304657297616359,1929960.893132640747353]}},
{"type":"Feature","properties":{"full_id":"n13814958437","osm_id":"13814958437","osm_type":"node","waterway":null,"seamark:type":null,"access":null,"tunnel":null,"seasonal":null,"historic":null,"date":null,"start_date":null,"name:en":null,"name":null,"addr:state":null,"addr:city":null,"backrest":null,"amenity":null,"ford":"yes"},"geometry":{"type":"Point","coordinates":[215402.19360627658898,1931270.052812256617472]}}
]
}
