{
"type": "FeatureCollection",
"name": "waterways_utm44",
"crs": { "type": "name", "properties": { "name": "urn:ogc:def:crs:EPSG::32644" } },
"features": [
{"type":"Feature","properties":{"full_id":"r5411364","osm_id":"5411364","osm_type":"relation","waterway":"dam","natural":null,"name":null,"type":"multipolygon"},"geometry":{"type":"MultiPolygon","coordinates":[[[[219834.706858348276,1918189.561003136215732],[219828.165156577131711,1918184.899703238625079],[219820.678482685238123,1918179.586887444602326],[219859.152961526124272,1918115.313558811089024],[219902.727306891174521,1918044.392083515180275],[219909.101459431520198,1918048.468752294545993],[219917.034657079144381,1918053.764406911795959],[219876.221248838235624,1918122.023297103354707],[219834.706858348276,1918189.561003136215732]]]]}},
{"type":"Feature","properties":{"full_id":"w738103606","osm_id":"738103606","osm_type":"way","waterway":null,"natural":"water","name":"Patthikunta tank","type":null},"geometry":{"type":"MultiPolygon","coordinates":[[[[222630.883168038912117,1916943.106636897893623],[222638.44372446188936,1916942.926525649148971],[222646.813929731841199,1916939.701046641217545],[222660.744614411378279,1916930.785408353665844],[222666.388434962253086,1916926.533787899883464],[222675.567973732016981,1916919.454526950139552],[222682.517884998815134,1916916.602714694337919],[222686.429649794241413,1916915.619396551977843],[222688.785883598146029,1916916.019332334864885],[222690.090014974819496,1916917.275195319205523],[222690.139133861113805,1916920.895855512702838],[222690.824260610737838,1916924.352845939574763],[222691.926352764014155,1916926.397731781005859],[222695.244346277147997,1916929.475698106456548],[222696.442814404086675,1916933.136137985624373],[222697.844552127760835,1916936.882415460189804],[222697.450839202967472,1916939.22445345390588],[222696.469458661042154,1916940.588842883007601],[222694.126746815396473,1916941.185418595559895],[222692.239605542446952,1916939.295150090008974],[222690.078803483222146,1916937.619007775560021],[222688.09197909256909,1916937.789929082151502],[222684.812470594188198,1916938.332768578315154],[222679.688150551402941,1916939.321463966509327],[222678.704818224301562,1916940.541913780616596],[222678.521858128602616,1916942.737126081716269],[222677.779139860125724,1916945.227866923669353],[222675.524425358511508,1916947.606228601420298],[222672.8306344661396,1916948.982777778292075],[222667.368877081840765,1916950.972750471439213],[222654.667220405652188,1916955.608067573746666],[222643.773869735188782,1916957.10695105441846],[222637.705064576643053,1916956.690950630698353],[222630.903569803747814,1916954.800924753770232],[222616.324262444919441,1916948.05511443852447],[222599.981708937208168,1916936.792737380601466],[222578.052890615130309,1916923.834281229414046],[222565.062876484473236,1916918.196521239820868],[222555.701133032504003,1916916.551679860334843],[222547.773069848306477,1916915.518623923417181],[222539.074418378586415,1916916.489423606777564],[222535.653757848718669,1916916.037506438558921],[222534.134055913600605,1916914.574164217337966],[222534.662101489200722,1916911.942362384404987],[222537.831548372691032,1916908.776358720147982],[222542.086723701795563,1916906.448347847908735],[222546.401953921071254,1916903.842662754002959],[222550.190279423375614,1916899.25073758373037],[222554.669073923141696,1916893.021504442440346],[222558.380969797319267,1916877.311917483573779],[222559.825025848927908,1916868.499241885263473],[222561.173203635669779,1916862.810849635163322],[222565.258309659606311,1916858.92366295773536],[222572.49237892520614,1916855.846469780197367],[222578.909291587246116,1916855.261035260977224],[222582.488469970354345,1916856.419571464182809],[222583.961673918529414,1916859.94338697870262],[222587.166381081449799,1916864.861227758927271],[222591.973448586068116,1916867.143765036249533],[222597.739655784156639,1916866.423199264332652],[222601.671183072961867,1916861.408516117138788],[222602.461448496032972,1916856.934808997437358],[222603.181840818317141,1916854.366846897639334],[222604.512830999679863,1916852.898039014544338],[222606.964726785197854,1916851.724103896180168],[222608.092178149789106,1916850.93359665456228],[222608.814557164325379,1916849.295857476070523],[222609.008029803168029,1916847.875709022162482],[222608.00588223640807,1916846.925835167989135],[222605.316790445940569,1916846.297861679689959],[222599.596475918602664,1916844.913665652973577],[222595.583206048700958,1916843.904984279768541],[222594.960169412079267,1916842.673106280621141],[222595.302534457005095,1916841.250937048578635],[222596.567793331632856,1916840.425335909472778],[222601.302390928438399,1916839.718771568499506],[222607.139296317414846,1916838.720390343572944],[222613.385030562523752,1916838.846051953500137],[222616.107080277579371,1916839.551100179553032],[222619.431012690998614,1916840.713106421055272],[222620.55435416783439,1916841.971419446868822],[222621.190910914563574,1916844.199810356367379],[222620.907707677397411,1916849.19820670154877],[222621.12398334289901,1916859.649503883905709],[222619.758543188741896,1916864.850850292248651],[222618.620167325541843,1916869.539693463593721],[222619.018306338693947,1916873.01165209361352],[222623.736088925448712,1916878.905661346623674],[222629.724233998276759,1916884.350532237440348],[222634.960423372511286,1916886.117833178723231],[222642.026103939628229,1916886.309896434890106],[222646.523774007742759,1916886.957632193807513],[222650.053552365920041,1916889.179991079960018],[222652.687843960418832,1916894.393512826645747],[222654.65893462166423,1916897.766608835430816],[222658.694272918335628,1916900.402936477679759],[222660.955516768910456,1916903.993584069423378],[222661.161075202922802,1916908.952124276198447],[222659.704363339988049,1916916.834709306713194],[222658.583705703087617,1916918.909751745406538],[222656.11039600596996,1916920.072897700825706],[222651.024042734876275,1916919.156288430793211],[222643.710064456274267,1916916.342960779555142],[222637.815608502307441,1916912.314339261036366],[222633.603172189847101,1916912.305050944909453],[222630.207487811567262,1916914.47741165664047],[222627.825935172731988,1916917.699154195841402],[222627.067370666598435,1916924.509128022706136],[222626.626263123063836,1916928.845203403383493],[222625.231949426641222,1916931.134375249501318],[222623.205116955854464,1916934.628165373811498],[222623.166279569617473,1916937.253324919613078],[222625.997018804715481,1916940.481860482133925],[222630.883168038912117,1916943.106636897893623]]]]}}
]
}
