{
"type": "FeatureCollection",
"name": "zones_elevation_utm44",
"crs": { "type": "name", "properties": { "name": "urn:ogc:def:crs:EPSG::32644" } },
"features": [
{"type":"Feature","properties":{"fid":0,"ward":"127-RANGAREDDY NAGAR","CIRCLE":"25-QUTUBULLAPUR","ZONE":"KUKATPALLY ZONE","_mean":562.10470836261425},"geometry":null},
{"type":"Feature","properties":{"fid":1,"ward":"119-OLD BOWENPALLY","CIRCLE":"24-KUKATPALLY","ZONE":"KUKATPALLY ZONE","_mean":547.06450645064501},"geometry":null},
{"type":"Feature","properties":{"fid":2,"ward":"145-SEETHAPHALMANDI","CIRCLE":"29-SECUNDERABAD","ZONE":"SECUNDERABAD ZONE","_mean":521.03171953255423},"geometry":null},
{"type":"Feature","properties":{"fid":3,"ward":"146-BOUDHA NAGAR","CIRCLE":"29-SECUNDERABAD","ZONE":"SECUNDERABAD ZONE","_mean":513.06413043478256},"geometry":null},
{"type":"Feature","properties":{"fid":4,"ward":"147-BANSILALPET","CIRCLE":"30-BEGUMPET","ZONE":"SECUNDERABAD ZONE","_mean":530.03993055555554},"geometry":null},
{"type":"Feature","properties":{"fid":5,"ward":"144-METTUGUDA","CIRCLE":"29-SECUNDERABAD","ZONE":"SECUNDERABAD ZONE","_mean":535.07504741262528},"geometry":null},
{"type":"Feature","properties":{"fid":6,"ward":"148-RAMGOPALPET","CIRCLE":"30-BEGUMPET","ZONE":"SECUNDERABAD ZONE","_mean":526.19063180827891},"geometry":null},
{"type":"Feature","properties":{"fid":7,"ward":"150-MONDA  MARKET","CIRCLE":"30-BEGUMPET","ZONE":"SECUNDERABAD ZONE","_mean":545.34566145092458},"geometry":null},
{"type":"Feature","properties":{"fid":8,"ward":"136-NEREDMET","CIRCLE":"28-MALKAJGIRI","ZONE":"SECUNDERABAD ZONE","_mean":566.46858477806472},"geometry":null},
{"type":"Feature","properties":{"fid":9,"ward":"141-GOUTHAM NAGAR","CIRCLE":"28-MALKAJGIRI","ZONE":"SECUNDERABAD ZONE","_mean":538.66386554621852},"geometry":null},
{"type":"Feature","properties":{"fid":10,"ward":"140-MALKAJGIRI","CIRCLE":"28-MALKAJGIRI","ZONE":"SECUNDERABAD ZONE","_mean":539.34916768168898},"geometry":null},
{"type":"Feature","properties":{"fid":11,"ward":"139-EAST ANAND BAGH","CIRCLE":"28-MALKAJGIRI","ZONE":"SECUNDERABAD ZONE","_mean":531.52512820512823},"geometry":null},
{"type":"Feature","properties":{"fid":12,"ward":"142-ADDAGUTTA","CIRCLE":"29-SECUNDERABAD","ZONE":"SECUNDERABAD ZONE","_mean":539.90933572710946},"geometry":null},
{"type":"Feature","properties":{"fid":13,"ward":"137-VINAYAK NAGAR","CIRCLE":"28-MALKAJGIRI","ZONE":"SECUNDERABAD ZONE","_mean":545.75712515489465},"geometry":null},
{"type":"Feature","properties":{"fid":14,"ward":"134-ALWAL","CIRCLE":"27-ALWAL","ZONE":"KUKATPALLY ZONE","_mean":569.21059819721393},"geometry":null},
{"type":"Feature","properties":{"fid":15,"ward":"132-JEEDIMETLA","CIRCLE":"25-QUTUBULLAPUR","ZONE":"KUKATPALLY ZONE","_mean":567.64174707973586},"geometry":null},
{"type":"Feature","properties":{"fid":16,"ward":"CONTONMENT AREA","CIRCLE":"CANTONMENT AREA","ZONE":" ","_mean":554.33898305084745},"geometry":null},
{"type":"Feature","properties":{"fid":17,"ward":"120-BALA NAGAR","CIRCLE":"24-KUKATPALLY","ZONE":"KUKATPALLY ZONE","_mean":549.90500610500612},"geometry":null},
{"type":"Feature","properties":{"fid":18,"ward":"130-SUBHASH NAGAR","CIRCLE":"25-QUTUBULLAPUR","ZONE":"KUKATPALLY ZONE","_mean":576.78586944095116},"geometry":null},
{"type":"Feature","properties":{"fid":19,"ward":"131-QUTHBULLAPUR","CIRCLE":"25-QUTUBULLAPUR","ZONE":"KUKATPALLY ZONE","_mean":554.34054726368163},"geometry":null},
{"type":"Feature","properties":{"fid":20,"ward":"121-KUKATPALLY","CIRCLE":"24-KUKATPALLY","ZONE":"KUKATPALLY ZONE","_mean":555.71818434976331},"geometry":null},
{"type":"Feature","properties":{"fid":21,"ward":"125-GAJULARAMARAM","CIRCLE":"26-GAJULARAMARAM","ZONE":"KUKATPALLY ZONE","_mean":591.81657758547556},"geometry":null},
{"type":"Feature","properties":{"fid":22,"ward":"124-ALLYWN COLONY","CIRCLE":"24-KUKATPALLY","ZONE":"KUKATPALLY ZONE","_mean":571.95466578424885},"geometry":null},
{"type":"Feature","properties":{"fid":23,"ward":"114-K.P.H.B.COLONY","CIRCLE":"23-MOOSAPET","ZONE":"KUKATPALLY ZONE","_mean":587.23468481799353},"geometry":null},
{"type":"Feature","properties":{"fid":24,"ward":"116-ALLAPUR","CIRCLE":"23-MOOSAPET","ZONE":"KUKATPALLY ZONE","_mean":563.98605299860526},"geometry":null},
{"type":"Feature","properties":{"fid":25,"ward":"115-BALAJI NAGAR","CIRCLE":"23-MOOSAPET","ZONE":"KUKATPALLY ZONE","_mean":564.05764851997515},"geometry":null},
{"type":"Feature","properties":{"fid":26,"ward":"117-MOOSAPET","CIRCLE":"23-MOOSAPET","ZONE":"KUKATPALLY ZONE","_mean":554.54891815616179},"geometry":null},
{"type":"Feature","properties":{"fid":27,"ward":"105-GACHIBOWLI","CIRCLE":"20-SERILINGAMPALLY","ZONE":"SERILINGAMPALLY ZONE","_mean":579.45535371976268},"geometry":null},
{"type":"Feature","properties":{"fid":28,"ward":"110-CHANDANAGAR","CIRCLE":"21-CHANDA NAGAR","ZONE":"SERILINGAMPALLY ZONE","_mean":563.60576663971972},"geometry":null},
{"type":"Feature","properties":{"fid":29,"ward":"111-BHARATHI NAGAR","CIRCLE":"22-RAMACHANDRAPURAM & PATANCHERUVU","ZONE":"SERILINGAMPALLY ZONE","_mean":560.90871748060249},"geometry":null},
{"type":"Feature","properties":{"fid":30,"ward":"106-SERILINGAMPALLY","CIRCLE":"20-SERILINGAMPALLY","ZONE":"SERILINGAMPALLY ZONE","_mean":585.93912557842668},"geometry":null},
{"type":"Feature","properties":{"fid":31,"ward":"104-KONDAPUR","CIRCLE":"20-SERILINGAMPALLY","ZONE":"SERILINGAMPALLY ZONE","_mean":587.71958328165692},"geometry":null},
{"type":"Feature","properties":{"fid":32,"ward":"109-HAFEEZPET","CIRCLE":"21-CHANDA NAGAR","ZONE":"SERILINGAMPALLY ZONE","_mean":574.63644773357998},"geometry":null},
{"type":"Feature","properties":{"fid":33,"ward":"118-FATEH NAGAR","CIRCLE":"23-MOOSAPET","ZONE":"KUKATPALLY ZONE","_mean":542.00054570259204},"geometry":null},
{"type":"Feature","properties":{"fid":34,"ward":"143-TARNAKA","CIRCLE":"29-SECUNDERABAD","ZONE":"SECUNDERABAD ZONE","_mean":519.44883370955608},"geometry":null},
{"type":"Feature","properties":{"fid":35,"ward":"8-HABSIGUDA","CIRCLE":"2-UPPAL","ZONE":"L.B.NAGAR ZONE","_mean":505.80269058295966},"geometry":null},
{"type":"Feature","properties":{"fid":36,"ward":"40-RIYASATNAGAR","CIRCLE":"8-CHANDRAYANGUTTA","ZONE":"CHARMINAR ZONE","_mean":517.90345937248594},"geometry":null},
{"type":"Feature","properties":{"fid":37,"ward":"36-LALITHABAGH","CIRCLE":"8-CHANDRAYANGUTTA","ZONE":"CHARMINAR ZONE","_mean":510.12181818181818},"geometry":null},
{"type":"Feature","properties":{"fid":38,"ward":"34-TALABCHANCHALAM","CIRCLE":"7-SANTOSH NAGAR","ZONE":"CHARMINAR ZONE","_mean":506.8030095759234},"geometry":null},
{"type":"Feature","properties":{"fid":39,"ward":"22-CHAITHANYAPURI","CIRCLE":"5-SAROOR NAGAR","ZONE":"L.B.NAGAR ZONE","_mean":481.46572212065814},"geometry":null},
{"type":"Feature","properties":{"fid":40,"ward":"37-KURMAGUDA","CIRCLE":"7-SANTOSH NAGAR","ZONE":"CHARMINAR ZONE","_mean":511.58854625550663},"geometry":null},
{"type":"Feature","properties":{"fid":41,"ward":"31-REIN BAZAR","CIRCLE":"7-SANTOSH NAGAR","ZONE":"CHARMINAR ZONE","_mean":504.06784260515605},"geometry":null},
{"type":"Feature","properties":{"fid":42,"ward":"29-CHAWANI","CIRCLE":"6-MALAKPET","ZONE":"CHARMINAR ZONE","_mean":509.28294930875575},"geometry":null},
{"type":"Feature","properties":{"fid":43,"ward":"38-I.S.SADAN","CIRCLE":"7-SANTOSH NAGAR","ZONE":"CHARMINAR ZONE","_mean":499.78091993185689},"geometry":null},
{"type":"Feature","properties":{"fid":44,"ward":"18-LINGOJIGUDA","CIRCLE":"4-LB. NAGAR","ZONE":"L.B.NAGAR ZONE","_mean":502.50167785234902},"geometry":null},
{"type":"Feature","properties":{"fid":45,"ward":"16-HASTHINAPURAM","CIRCLE":"4-LB. NAGAR","ZONE":"L.B.NAGAR ZONE","_mean":520.47810152098225},"geometry":null},
{"type":"Feature","properties":{"fid":46,"ward":"20-R.K.PURAM","CIRCLE":"5-SAROOR NAGAR","ZONE":"L.B.NAGAR ZONE","_mean":497.29183598079055},"geometry":null},
{"type":"Feature","properties":{"fid":47,"ward":"19-SAROORNAGAR","CIRCLE":"5-SAROOR NAGAR","ZONE":"L.B.NAGAR ZONE","_mean":497.9113222486144},"geometry":null},
{"type":"Feature","properties":{"fid":48,"ward":"14-B.N.REDDY NAGAR","CIRCLE":"3-HAYAT NAGAR","ZONE":"L.B.NAGAR ZONE","_mean":534.64494875549053},"geometry":null},
{"type":"Feature","properties":{"fid":49,"ward":"12-MANSOORABAD","CIRCLE":"3-HAYAT NAGAR","ZONE":"L.B.NAGAR ZONE","_mean":512.54383358098073},"geometry":null},
{"type":"Feature","properties":{"fid":50,"ward":"21-KOTHAPET","CIRCLE":"5-SAROOR NAGAR","ZONE":"L.B.NAGAR ZONE","_mean":482.02251049217858},"geometry":null},
{"type":"Feature","properties":{"fid":51,"ward":"11-NAGOLE","CIRCLE":"3-HAYAT NAGAR","ZONE":"L.B.NAGAR ZONE","_mean":489.49343077681067},"geometry":null},
{"type":"Feature","properties":{"fid":52,"ward":"10-UPPAL","CIRCLE":"2-UPPAL","ZONE":"L.B.NAGAR ZONE","_mean":479.30997899159667},"geometry":null},
{"type":"Feature","properties":{"fid":53,"ward":"GRAMPANCHAYAT PEERZADI GUDA","CIRCLE":"GRAMPANCHAYAT PEERZADIGUDA","ZONE":" ","_mean":480.44285714285712},"geometry":null},
{"type":"Feature","properties":{"fid":54,"ward":"KALAVANCHA GRAM PANCHAYATH","CIRCLE":"KALAVANCHA GRAMPANCHAYATH","ZONE":" ","_mean":520.5424242424242},"geometry":null},
{"type":"Feature","properties":{"fid":55,"ward":"13-HAYATHNAGAR","CIRCLE":"3-HAYAT NAGAR","ZONE":"L.B.NAGAR ZONE","_mean":514.69314823107925},"geometry":null},
{"type":"Feature","properties":{"fid":56,"ward":"15-VANASTHALIPURAM","CIRCLE":"4-LB. NAGAR","ZONE":"L.B.NAGAR ZONE","_mean":528.06643443642702},"geometry":null},
{"type":"Feature","properties":{"fid":57,"ward":"26-OLD MALAKPET","CIRCLE":"6-MALAKPET","ZONE":"CHARMINAR ZONE","_mean":492.44668094218417},"geometry":null},
{"type":"Feature","properties":{"fid":58,"ward":"17-CHAMPAPET","CIRCLE":"4-LB. NAGAR","ZONE":"L.B.NAGAR ZONE","_mean":505.46690734055358},"geometry":null},
{"type":"Feature","properties":{"fid":59,"ward":"39-SANTOSH NAGAR","CIRCLE":"7-SANTOSH NAGAR","ZONE":"CHARMINAR ZONE","_mean":514.76345004269854},"geometry":null},
{"type":"Feature","properties":{"fid":60,"ward":"66-LUNGER HOUSE","CIRCLE":"13-KARWAN","ZONE":"KHAIRATHABAD ZONE","_mean":522.71057441253265},"geometry":null},
{"type":"Feature","properties":{"fid":61,"ward":"112-RAMACHANDRAPURAM","CIRCLE":"22-RAMACHANDRAPURAM & PATANCHERUVU","ZONE":"SERILINGAMPALLY ZONE","_mean":548.45488721804509},"geometry":null},
{"type":"Feature","properties":{"fid":62,"ward":"128-CHINTAL","CIRCLE":"26-GAJULARAMARAM","ZONE":"KUKATPALLY ZONE","_mean":563.35685611662791},"geometry":null},
{"type":"Feature","properties":{"fid":63,"ward":"126-JAGADGIRI GUTTA","CIRCLE":"26-GAJULARAMARAM","ZONE":"KUKATPALLY ZONE","_mean":578.02938840349486},"geometry":null},
{"type":"Feature","properties":{"fid":64,"ward":"129-SURARAM","CIRCLE":"26-GAJULARAMARAM","ZONE":"KUKATPALLY ZONE","_mean":595.16906399833226},"geometry":null},
{"type":"Feature","properties":{"fid":65,"ward":"133-MACHABOLARUM","CIRCLE":"27-ALWAL","ZONE":"KUKATPALLY ZONE","_mean":588.09248304717937},"geometry":null},
{"type":"Feature","properties":{"fid":66,"ward":"138-MOULA-ALI","CIRCLE":"28-MALKAJGIRI","ZONE":"SECUNDERABAD ZONE","_mean":551.44387755102036},"geometry":null},
{"type":"Feature","properties":{"fid":67,"ward":"107-MADHAPUR","CIRCLE":"21-CHANDA NAGAR","ZONE":"SERILINGAMPALLY ZONE","_mean":582.47674130380892},"geometry":null},
{"type":"Feature","properties":{"fid":68,"ward":"OU","CIRCLE":"OU","ZONE":" ","_mean":519.16329572067275},"geometry":null},
{"type":"Feature","properties":{"fid":69,"ward":"149-BEGUMPET","CIRCLE":"30-BEGUMPET","ZONE":"SECUNDERABAD ZONE","_mean":527.83445190156601},"geometry":null},
{"type":"Feature","properties":{"fid":70,"ward":"135-VENKATAPURAM","CIRCLE":"27-ALWAL","ZONE":"KUKATPALLY ZONE","_mean":556.36052551176294},"geometry":null},
{"type":"Feature","properties":{"fid":71,"ward":"123-HYDER NAGAR","CIRCLE":"24-KUKATPALLY","ZONE":"KUKATPALLY ZONE","_mean":592.91853512705529},"geometry":null},
{"type":"Feature","properties":{"fid":72,"ward":"122-VIVEKANANDA NAGAR COLONY","CIRCLE":"24-KUKATPALLY","ZONE":"KUKATPALLY ZONE","_mean":568.53196099674972},"geometry":null},
{"type":"Feature","properties":{"fid":73,"ward":"113-PATANCHERUVU","CIRCLE":"22-RAMACHANDRAPURAM & PATANCHERUVU","ZONE":"SERILINGAMPALLY ZONE","_mean":533.70336029869327},"geometry":null},
{"type":"Feature","properties":{"fid":74,"ward":"108-MIYAPUR","CIRCLE":"21-CHANDA NAGAR","ZONE":"SERILINGAMPALLY ZONE","_mean":584.81344444444449},"geometry":null},
{"type":"Feature","properties":{"fid":75,"ward":"41-KANCHANBAGH","CIRCLE":"8-CHANDRAYANGUTTA","ZONE":"CHARMINAR ZONE","_mean":532.15367886915544},"geometry":null},
{"type":"Feature","properties":{"fid":76,"ward":"7-CHILUKA NAGAR","CIRCLE":"2-UPPAL","ZONE":"L.B.NAGAR ZONE","_mean":496.47308168316829},"geometry":null},
{"type":"Feature","properties":{"fid":77,"ward":"9-RAMANTHAPUR","CIRCLE":"2-UPPAL","ZONE":"L.B.NAGAR ZONE","_mean":484.54882154882154},"geometry":null},
{"type":"Feature","properties":{"fid":78,"ward":"25-MOOSARAMBAGH","CIRCLE":"6-MALAKPET","ZONE":"CHARMINAR ZONE","_mean":492.17942345924456},"geometry":null},
{"type":"Feature","properties":{"fid":79,"ward":"BANDLA GUDA","CIRCLE":"BANDLAGUDA","ZONE":" ","_mean":543.58219178082197},"geometry":null},
{"type":"Feature","properties":{"fid":80,"ward":"28-AZAMPURA","CIRCLE":"6-MALAKPET","ZONE":"CHARMINAR ZONE","_mean":495.9312377210216},"geometry":null},
{"type":"Feature","properties":{"fid":81,"ward":"56-KISHAN BAGH","CIRCLE":"10-FALAKNUMA","ZONE":"CHARMINAR ZONE","_mean":505.10285714285715},"geometry":null},
{"type":"Feature","properties":{"fid":82,"ward":"52-PURANAPOOL","CIRCLE":"9-CHARMINAR","ZONE":"CHARMINAR ZONE","_mean":506.13287514318444},"geometry":null},
{"type":"Feature","properties":{"fid":83,"ward":"59-MAILARDEVPALLY","CIRCLE":"11-RAJENDRA NAGAR","ZONE":"CHARMINAR ZONE","_mean":553.51560995736486},"geometry":null},
{"type":"Feature","properties":{"fid":84,"ward":"46-FALAKNUMA","CIRCLE":"10-FALAKNUMA","ZONE":"CHARMINAR ZONE","_mean":541.31471588149589},"geometry":null},
{"type":"Feature","properties":{"fid":85,"ward":"61-ATTAPUR","CIRCLE":"11-RAJENDRA NAGAR","ZONE":"CHARMINAR ZONE","_mean":514.79248694254716},"geometry":null},
{"type":"Feature","properties":{"fid":86,"ward":"60-RAJENDRANAGAR","CIRCLE":"11-RAJENDRA NAGAR","ZONE":"CHARMINAR ZONE","_mean":537.79212776659961},"geometry":null},
{"type":"Feature","properties":{"fid":87,"ward":"49-GANSIBAZAR","CIRCLE":"9-CHARMINAR","ZONE":"CHARMINAR ZONE","_mean":502.83071278825997},"geometry":null},
{"type":"Feature","properties":{"fid":88,"ward":"33-MOGHALPURA","CIRCLE":"9-CHARMINAR","ZONE":"CHARMINAR ZONE","_mean":515.52591792656585},"geometry":null},
{"type":"Feature","properties":{"fid":89,"ward":"47-NAWABSAHEBKUNTA","CIRCLE":"10-FALAKNUMA","ZONE":"CHARMINAR ZONE","_mean":542.05813953488371},"geometry":null},
{"type":"Feature","properties":{"fid":90,"ward":"58-SHASTRIPURAM","CIRCLE":"11-RAJENDRA NAGAR","ZONE":"CHARMINAR ZONE","_mean":541.04815439385425},"geometry":null},
{"type":"Feature","properties":{"fid":91,"ward":"54-JAHANUMA","CIRCLE":"10-FALAKNUMA","ZONE":"CHARMINAR ZONE","_mean":527.72510435301137},"geometry":null},
{"type":"Feature","properties":{"fid":92,"ward":"48-SHALIBANDA","CIRCLE":"9-CHARMINAR","ZONE":"CHARMINAR ZONE","_mean":525.65769455822124},"geometry":null},
{"type":"Feature","properties":{"fid":93,"ward":"53-DOODBOWLI","CIRCLE":"10-FALAKNUMA","ZONE":"CHARMINAR ZONE","_mean":508.95382286146861},"geometry":null},
{"type":"Feature","properties":{"fid":94,"ward":"55-RAMNASTPURA","CIRCLE":"10-FALAKNUMA","ZONE":"CHARMINAR ZONE","_mean":515.45556711758582},"geometry":null},
{"type":"Feature","properties":{"fid":95,"ward":"43-CHANDRAYANGUTTA","CIRCLE":"8-CHANDRAYANGUTTA","ZONE":"CHARMINAR ZONE","_mean":530.09450651769089},"geometry":null},
{"type":"Feature","properties":{"fid":96,"ward":"44-UPPUGUDA","CIRCLE":"8-CHANDRAYANGUTTA","ZONE":"CHARMINAR ZONE","_mean":515.73150510204084},"geometry":null},
{"type":"Feature","properties":{"fid":97,"ward":"35-GOWLIPURA","CIRCLE":"7-SANTOSH NAGAR","ZONE":"CHARMINAR ZONE","_mean":519.32776801405976},"geometry":null},
{"type":"Feature","properties":{"fid":98,"ward":"30-DABEERPURA","CIRCLE":"6-MALAKPET","ZONE":"CHARMINAR ZONE","_mean":497.69620253164555},"geometry":null},
{"type":"Feature","properties":{"fid":99,"ward":"32-PATHER GATTI","CIRCLE":"9-CHARMINAR","ZONE":"CHARMINAR ZONE","_mean":504.86466165413532},"geometry":null},
{"type":"Feature","properties":{"fid":100,"ward":"23-GADDIANNARAM","CIRCLE":"5-SAROOR NAGAR","ZONE":"L.B.NAGAR ZONE","_mean":488.7274447949527},"geometry":null},
{"type":"Feature","properties":{"fid":101,"ward":"24-SAIDABAD","CIRCLE":"6-MALAKPET","ZONE":"CHARMINAR ZONE","_mean":507.47788944723618},"geometry":null},
{"type":"Feature","properties":{"fid":102,"ward":"27-AKBERBAGH","CIRCLE":"6-MALAKPET","ZONE":"CHARMINAR ZONE","_mean":509.54754307594129},"geometry":null},
{"type":"Feature","properties":{"fid":103,"ward":"45-JANGAMMET","CIRCLE":"8-CHANDRAYANGUTTA","ZONE":"CHARMINAR ZONE","_mean":523.70372369131144},"geometry":null},
{"type":"Feature","properties":{"fid":104,"ward":"42-BARKAS","CIRCLE":"8-CHANDRAYANGUTTA","ZONE":"CHARMINAR ZONE","_mean":542.77343300747555},"geometry":null},
{"type":"Feature","properties":{"fid":105,"ward":"57-SULEMAN NAGAR","CIRCLE":"11-RAJENDRA NAGAR","ZONE":"CHARMINAR ZONE","_mean":535.67513899920573},"geometry":null},
{"type":"Feature","properties":{"fid":106,"ward":"74-AHMED NAGAR","CIRCLE":"12-MEDHDIPATNAM","ZONE":"KHAIRATHABAD ZONE","_mean":535.84709643047415},"geometry":null},
{"type":"Feature","properties":{"fid":107,"ward":"92-VENKATESHWARA COLONY","CIRCLE":"18-JUBILEE HILLS","ZONE":"KHAIRATHABAD ZONE","_mean":582.24417314095444},"geometry":null},
{"type":"Feature","properties":{"fid":108,"ward":"89-GANDHINAGAR","CIRCLE":"15-MUSHEERABAD","ZONE":"SECUNDERABAD ZONE","_mean":505.08744993324433},"geometry":null},
{"type":"Feature","properties":{"fid":109,"ward":"75-RED HILLS","CIRCLE":"12-MEDHDIPATNAM","ZONE":"KHAIRATHABAD ZONE","_mean":523.23691460055102},"geometry":null},
{"type":"Feature","properties":{"fid":110,"ward":"79-HIMAYATNAGAR","CIRCLE":"16-AMBERPET","ZONE":"SECUNDERABAD ZONE","_mean":509.92743362831857},"geometry":null},
{"type":"Feature","properties":{"fid":111,"ward":"88-BHOLAKPUR","CIRCLE":"15-MUSHEERABAD","ZONE":"SECUNDERABAD ZONE","_mean":515.29636363636359},"geometry":null},
{"type":"Feature","properties":{"fid":112,"ward":"86-MUSHEERABAD","CIRCLE":"15-MUSHEERABAD","ZONE":"SECUNDERABAD ZONE","_mean":515.71320346320351},"geometry":null},
{"type":"Feature","properties":{"fid":113,"ward":"85-ADIKMET","CIRCLE":"15-MUSHEERABAD","ZONE":"SECUNDERABAD ZONE","_mean":504.85933897002303},"geometry":null},
{"type":"Feature","properties":{"fid":114,"ward":"87-RAMNAGAR","CIRCLE":"15-MUSHEERABAD","ZONE":"SECUNDERABAD ZONE","_mean":505.99372056514915},"geometry":null},
{"type":"Feature","properties":{"fid":115,"ward":"90-KAVADIGUDA","CIRCLE":"15-MUSHEERABAD","ZONE":"SECUNDERABAD ZONE","_mean":509.85598194130927},"geometry":null},
{"type":"Feature","properties":{"fid":116,"ward":"93-BANJARA HILLS","CIRCLE":"18-JUBILEE HILLS","ZONE":"KHAIRATHABAD ZONE","_mean":569.08238045738051},"geometry":null},
{"type":"Feature","properties":{"fid":117,"ward":"91-KHAIRATABAD","CIRCLE":"17-KHAIRATABAD","ZONE":"KHAIRATHABAD ZONE","_mean":520.65260109628707},"geometry":null},
{"type":"Feature","properties":{"fid":118,"ward":"103-BORABANDA","CIRCLE":"19-YOUSUFGUDA","ZONE":"SERILINGAMPALLY ZONE","_mean":571.73253493013976},"geometry":null},
{"type":"Feature","properties":{"fid":119,"ward":"97-SOMAJIGUDA","CIRCLE":"17-KHAIRATABAD","ZONE":"KHAIRATHABAD ZONE","_mean":536.76975945017182},"geometry":null},
{"type":"Feature","properties":{"fid":120,"ward":"98-AMEERPET","CIRCLE":"17-KHAIRATABAD","ZONE":"KHAIRATHABAD ZONE","_mean":536.8912307113286},"geometry":null},
{"type":"Feature","properties":{"fid":121,"ward":"101-ERRAGADDA","CIRCLE":"19-YOUSUFGUDA","ZONE":"SERILINGAMPALLY ZONE","_mean":559.4212050984936},"geometry":null},
{"type":"Feature","properties":{"fid":122,"ward":"100-SANATH NAGAR","CIRCLE":"17-KHAIRATABAD","ZONE":"KHAIRATHABAD ZONE","_mean":547.57820927723844},"geometry":null},
{"type":"Feature","properties":{"fid":123,"ward":"99-VENGALRAO NAGAR","CIRCLE":"19-YOUSUFGUDA","ZONE":"SERILINGAMPALLY ZONE","_mean":553.38427057864715},"geometry":null},
{"type":"Feature","properties":{"fid":124,"ward":"102-RAHAMATH NAGAR","CIRCLE":"19-YOUSUFGUDA","ZONE":"SERILINGAMPALLY ZONE","_mean":572.32801418439715},"geometry":null},
{"type":"Feature","properties":{"fid":125,"ward":"6-NACHARAM","CIRCLE":"1-KAPRA","ZONE":"L.B.NAGAR ZONE","_mean":511.21641249092227},"geometry":null},
{"type":"Feature","properties":{"fid":126,"ward":"84-BAGH AMBERPET","CIRCLE":"16-AMBERPET","ZONE":"SECUNDERABAD ZONE","_mean":502.24591121495325},"geometry":null},
{"type":"Feature","properties":{"fid":127,"ward":"81-NALLAKUNTA","CIRCLE":"16-AMBERPET","ZONE":"SECUNDERABAD ZONE","_mean":496.675},"geometry":null},
{"type":"Feature","properties":{"fid":128,"ward":"80-KACHIGUDA(Barkathpura)","CIRCLE":"16-AMBERPET","ZONE":"SECUNDERABAD ZONE","_mean":499.11248454882571},"geometry":null},
{"type":"Feature","properties":{"fid":129,"ward":"82-GOLNAKA","CIRCLE":"16-AMBERPET","ZONE":"SECUNDERABAD ZONE","_mean":486.85516506922255},"geometry":null},
{"type":"Feature","properties":{"fid":130,"ward":"83-AMBERPET","CIRCLE":"16-AMBERPET","ZONE":"SECUNDERABAD ZONE","_mean":489.05860113421551},"geometry":null},
{"type":"Feature","properties":{"fid":131,"ward":"51-GOSHA MAHAL","CIRCLE":"14-GOSHAMAHAL","ZONE":"KHAIRATHABAD ZONE","_mean":501.27033492822966},"geometry":null},
{"type":"Feature","properties":{"fid":132,"ward":"68-TOLICHOWKI","CIRCLE":"13-KARWAN","ZONE":"KHAIRATHABAD ZONE","_mean":526.1371001246365},"geometry":null},
{"type":"Feature","properties":{"fid":133,"ward":"67-GOLCONDA","CIRCLE":"13-KARWAN","ZONE":"KHAIRATHABAD ZONE","_mean":521.82240055826935},"geometry":null},
{"type":"Feature","properties":{"fid":134,"ward":"77-JAMBAGH(Nampally)","CIRCLE":"14-GOSHAMAHAL","ZONE":"KHAIRATHABAD ZONE","_mean":504.4581690757775},"geometry":null},
{"type":"Feature","properties":{"fid":135,"ward":"63-MANGALHAT","CIRCLE":"14-GOSHAMAHAL","ZONE":"KHAIRATHABAD ZONE","_mean":512.09047993705747},"geometry":null},
{"type":"Feature","properties":{"fid":136,"ward":"71-GUDIMALKAPUR","CIRCLE":"12-MEDHDIPATNAM","ZONE":"KHAIRATHABAD ZONE","_mean":519.69374665954035},"geometry":null},
{"type":"Feature","properties":{"fid":137,"ward":"70-MEHDIPATNAM","CIRCLE":"12-MEDHDIPATNAM","ZONE":"KHAIRATHABAD ZONE","_mean":529.747572815534},"geometry":null},
{"type":"Feature","properties":{"fid":138,"ward":"76-MALLEPALLY","CIRCLE":"12-MEDHDIPATNAM","ZONE":"KHAIRATHABAD ZONE","_mean":511.53441682600385},"geometry":null},
{"type":"Feature","properties":{"fid":139,"ward":"62-ZIAGUDA","CIRCLE":"13-KARWAN","ZONE":"KHAIRATHABAD ZONE","_mean":501.10115783059109},"geometry":null},
{"type":"Feature","properties":{"fid":140,"ward":"72-ASIF NAGAR","CIRCLE":"12-MEDHDIPATNAM","ZONE":"KHAIRATHABAD ZONE","_mean":523.79353416605443},"geometry":null},
{"type":"Feature","properties":{"fid":141,"ward":"73-VIJAYANAGAR COLONY","CIRCLE":"12-MEDHDIPATNAM","ZONE":"KHAIRATHABAD ZONE","_mean":524.01224707135248},"geometry":null},
{"type":"Feature","properties":{"fid":142,"ward":"5-MALLAPUR","CIRCLE":"1-KAPRA","ZONE":"L.B.NAGAR ZONE","_mean":527.0057614246432},"geometry":null},
{"type":"Feature","properties":{"fid":143,"ward":"3-CHERLAPALLY","CIRCLE":"1-KAPRA","ZONE":"L.B.NAGAR ZONE","_mean":531.43977419156897},"geometry":null},
{"type":"Feature","properties":{"fid":144,"ward":"96-YOUSUFGUDA","CIRCLE":"19-YOUSUFGUDA","ZONE":"SERILINGAMPALLY ZONE","_mean":561.34296365330852},"geometry":null},
{"type":"Feature","properties":{"fid":145,"ward":"95-JUBILEE HILLS","CIRCLE":"18-JUBILEE HILLS","ZONE":"KHAIRATHABAD ZONE","_mean":591.61927411849865},"geometry":null},
{"type":"Feature","properties":{"fid":146,"ward":"50-BEGUM BAZAR","CIRCLE":"14-GOSHAMAHAL","ZONE":"KHAIRATHABAD ZONE","_mean":499.05613425925924},"geometry":null},
{"type":"Feature","properties":{"fid":147,"ward":"78-GUNFOUNDRY(Abids)","CIRCLE":"14-GOSHAMAHAL","ZONE":"KHAIRATHABAD ZONE","_mean":513.64011299435026},"geometry":null},
{"type":"Feature","properties":{"fid":148,"ward":"65-KARWAN","CIRCLE":"13-KARWAN","ZONE":"KHAIRATHABAD ZONE","_mean":506.33126195028683},"geometry":null},
{"type":"Feature","properties":{"fid":149,"ward":"2-DR.A.S.RAO NAGAR","CIRCLE":"1-KAPRA","ZONE":"L.B.NAGAR ZONE","_mean":550.25442520910326},"geometry":null},
{"type":"Feature","properties":{"fid":150,"ward":"4-MEERPET H.B.COLONY","CIRCLE":"1-KAPRA","ZONE":"L.B.NAGAR ZONE","_mean":541.97112781954888},"geometry":null},
{"type":"Feature","properties":{"fid":151,"ward":"1-KAPRA","CIRCLE":"1-KAPRA","ZONE":"L.B.NAGAR ZONE","_mean":555.53144654088055},"geometry":null},
{"type":"Feature","properties":{"fid":152,"ward":"94-SHAIKPET","CIRCLE":"18-JUBILEE HILLS","ZONE":"KHAIRATHABAD ZONE","_mean":543.31950464396289},"geometry":null},
{"type":"Feature","properties":{"fid":153,"ward":"64-DATTATHREYA NAGAR","CIRCLE":"14-GOSHAMAHAL","ZONE":"KHAIRATHABAD ZONE","_mean":518.01612903225805},"geometry":null},
{"type":"Feature","properties":{"fid":154,"ward":"69-NANALNAGAR","CIRCLE":"13-KARWAN","ZONE":"KHAIRATHABAD ZONE","_mean":536.903748125937},"geometry":null}
]
}
